{
  "type": "FeatureCollection",
  "features": [
    {
      "type": "Feature",
      "properties": {
        "norad_id": 38867,
        "name": "INTELSAT 23 (IS-23)",
        "group": "intelsat",
        "lat": -0.024050679139192392,
        "lon": 10.512984126731647,
        "alt_km": 35789.80260238291,
        "timestamp": "2025-12-14T22:38:40.427170+00:00",
        "meta_object_name": "INTELSAT 23 (IS-23)",
        "meta_object_id": "2012-057A",
        "meta_epoch": "2025-12-14T06:19:08.261184",
        "meta_mean_motion": 1.0026993,
        "meta_eccentricity": 0.0001002,
        "meta_inclination": 0.044,
        "meta_ra_of_asc_node": 97.0354,
        "meta_arg_of_pericenter": 135.8594,
        "meta_mean_anomaly": 252.0708,
        "meta_ephemeris_type": 0,
        "meta_classification_type": "U",
        "meta_norad_cat_id": 38867,
        "meta_element_set_no": 999,
        "meta_rev_at_epoch": 4810,
        "meta_bstar": 0,
        "meta_mean_motion_dot": -2.67e-06,
        "meta_mean_motion_ddot": 0,
        "tle_line1": "1 38867U 12057A   25348.26329006 -.00000267  00000+0  00000+0 0  9991",
        "tle_line2": "2 38867   0.0440  97.0354 0001002 135.8594 252.0708  1.00269930 48105"
      },
      "geometry": {
        "type": "Point",
        "coordinates": [
          10.512984126731647,
          -0.024050679139192392
        ]
      }
    },
    {
      "type": "Feature",
      "properties": {
        "norad_id": 39360,
        "name": "FM-6",
        "group": "intelsat",
        "lat": -0.010244652636686377,
        "lon": -52.62825652224257,
        "alt_km": 35794.65070820757,
        "timestamp": "2025-12-14T22:38:40.427182+00:00",
        "meta_object_name": "FM-6",
        "meta_object_id": "2013-058A",
        "meta_epoch": "2025-12-14T04:19:57.175968",
        "meta_mean_motion": 1.00264624,
        "meta_eccentricity": 0.00025657,
        "meta_inclination": 0.0081,
        "meta_ra_of_asc_node": 55.9543,
        "meta_arg_of_pericenter": 123.5668,
        "meta_mean_anomaly": 212.4248,
        "meta_ephemeris_type": 0,
        "meta_classification_type": "U",
        "meta_norad_cat_id": 39360,
        "meta_element_set_no": 999,
        "meta_rev_at_epoch": 4421,
        "meta_bstar": 0,
        "meta_mean_motion_dot": 1e-08,
        "meta_mean_motion_ddot": 0,
        "tle_line1": "1 39360U 13058A   25348.18052287  .00000001  00000+0  00000+0 0  9992",
        "tle_line2": "2 39360   0.0081  55.9543 0002565 123.5668 212.4248  1.00264624 44211"
      },
      "geometry": {
        "type": "Point",
        "coordinates": [
          -52.62825652224257,
          -0.010244652636686377
        ]
      }
    },
    {
      "type": "Feature",
      "properties": {
        "norad_id": 40271,
        "name": "INTELSAT 30 (IS-30)",
        "group": "intelsat",
        "lat": -0.017075657164575063,
        "lon": -31.562393496637018,
        "alt_km": 35788.615708793106,
        "timestamp": "2025-12-14T22:38:40.427193+00:00",
        "meta_object_name": "INTELSAT 30 (IS-30)",
        "meta_object_id": "2014-062A",
        "meta_epoch": "2025-12-14T06:07:09.408000",
        "meta_mean_motion": 1.00270387,
        "meta_eccentricity": 0.00014818,
        "meta_inclination": 0.0154,
        "meta_ra_of_asc_node": 23.1736,
        "meta_arg_of_pericenter": 54.9488,
        "meta_mean_anomaly": 1.787,
        "meta_ephemeris_type": 0,
        "meta_classification_type": "U",
        "meta_norad_cat_id": 40271,
        "meta_element_set_no": 999,
        "meta_rev_at_epoch": 493,
        "meta_bstar": 0,
        "meta_mean_motion_dot": -1.33e-06,
        "meta_mean_motion_ddot": 0,
        "tle_line1": "1 40271U 14062A   25348.25497000 -.00000133  00000+0  00000+0 0  9992",
        "tle_line2": "2 40271   0.0154  23.1736 0001481  54.9488   1.7870  1.00270387  4937"
      },
      "geometry": {
        "type": "Point",
        "coordinates": [
          -31.562393496637018,
          -0.017075657164575063
        ]
      }
    },
    {
      "type": "Feature",
      "properties": {
        "norad_id": 40333,
        "name": "DIRECTV 14",
        "group": "intelsat",
        "lat": -0.006849611022335374,
        "lon": -35.720311077174195,
        "alt_km": 35787.55186669532,
        "timestamp": "2025-12-14T22:38:40.427205+00:00",
        "meta_object_name": "DIRECTV 14",
        "meta_object_id": "2014-078B",
        "meta_epoch": "2025-12-14T06:05:54.526848",
        "meta_mean_motion": 1.00270261,
        "meta_eccentricity": 2.615e-05,
        "meta_inclination": 0.0026,
        "meta_ra_of_asc_node": 348.2073,
        "meta_arg_of_pericenter": 134.9452,
        "meta_mean_anomaly": 312.2715,
        "meta_ephemeris_type": 0,
        "meta_classification_type": "U",
        "meta_norad_cat_id": 40333,
        "meta_element_set_no": 999,
        "meta_rev_at_epoch": 4018,
        "meta_bstar": 0,
        "meta_mean_motion_dot": -1.08e-06,
        "meta_mean_motion_ddot": 0,
        "tle_line1": "1 40333U 14078B   25348.25410332 -.00000108  00000+0  00000+0 0  9993",
        "tle_line2": "2 40333   0.0026 348.2073 0000261 134.9452 312.2715  1.00270261 40180"
      },
      "geometry": {
        "type": "Point",
        "coordinates": [
          -35.720311077174195,
          -0.006849611022335374
        ]
      }
    },
    {
      "type": "Feature",
      "properties": {
        "norad_id": 40663,
        "name": "DIRECTV 15",
        "group": "intelsat",
        "lat": -0.032494125131510294,
        "lon": -39.35552554333734,
        "alt_km": 35786.2458201088,
        "timestamp": "2025-12-14T22:38:40.427217+00:00",
        "meta_object_name": "DIRECTV 15",
        "meta_object_id": "2015-026A",
        "meta_epoch": "2025-12-14T07:45:38.704032",
        "meta_mean_motion": 1.00269806,
        "meta_eccentricity": 9.77e-06,
        "meta_inclination": 0.039,
        "meta_ra_of_asc_node": 84.6308,
        "meta_arg_of_pericenter": 244.6092,
        "meta_mean_anomaly": 127.5507,
        "meta_ephemeris_type": 0,
        "meta_classification_type": "U",
        "meta_norad_cat_id": 40663,
        "meta_element_set_no": 999,
        "meta_rev_at_epoch": 3861,
        "meta_bstar": 0,
        "meta_mean_motion_dot": -8.4e-07,
        "meta_mean_motion_ddot": 0,
        "tle_line1": "1 40663U 15026A   25348.32336463 -.00000084  00000+0  00000+0 0  9996",
        "tle_line2": "2 40663   0.0390  84.6308 0000097 244.6092 127.5507  1.00269806 38612"
      },
      "geometry": {
        "type": "Point",
        "coordinates": [
          -39.35552554333734,
          -0.032494125131510294
        ]
      }
    },
    {
      "type": "Feature",
      "properties": {
        "norad_id": 40664,
        "name": "SKY MEXICO-1",
        "group": "intelsat",
        "lat": -0.030893870112597963,
        "lon": -15.22327144926673,
        "alt_km": 35781.66670003514,
        "timestamp": "2025-12-14T22:38:40.427229+00:00",
        "meta_object_name": "SKY MEXICO-1",
        "meta_object_id": "2015-026B",
        "meta_epoch": "2025-12-14T06:11:46.466016",
        "meta_mean_motion": 1.00272081,
        "meta_eccentricity": 0.00024768,
        "meta_inclination": 0.0405,
        "meta_ra_of_asc_node": 81.3311,
        "meta_arg_of_pericenter": 198.4179,
        "meta_mean_anomaly": 177.6111,
        "meta_ephemeris_type": 0,
        "meta_classification_type": "U",
        "meta_norad_cat_id": 40664,
        "meta_element_set_no": 999,
        "meta_rev_at_epoch": 3860,
        "meta_bstar": 0,
        "meta_mean_motion_dot": -2.17e-06,
        "meta_mean_motion_ddot": 0,
        "tle_line1": "1 40664U 15026B   25348.25817669 -.00000217  00000+0  00000+0 0  9999",
        "tle_line2": "2 40664   0.0405  81.3311 0002476 198.4179 177.6111  1.00272081 38608"
      },
      "geometry": {
        "type": "Point",
        "coordinates": [
          -15.22327144926673,
          -0.030893870112597963
        ]
      }
    },
    {
      "type": "Feature",
      "properties": {
        "norad_id": 40874,
        "name": "INTELSAT 34 (IS-34)",
        "group": "intelsat",
        "lat": 0.022460904954781206,
        "lon": 8.010329133194709,
        "alt_km": 35788.162705133305,
        "timestamp": "2025-12-14T22:38:40.427240+00:00",
        "meta_object_name": "INTELSAT 34 (IS-34)",
        "meta_object_id": "2015-039A",
        "meta_epoch": "2025-12-14T06:18:23.332320",
        "meta_mean_motion": 1.00272082,
        "meta_eccentricity": 5.895e-05,
        "meta_inclination": 0.0131,
        "meta_ra_of_asc_node": 321.2524,
        "meta_arg_of_pericenter": 194.4725,
        "meta_mean_anomaly": 326.5566,
        "meta_ephemeris_type": 0,
        "meta_classification_type": "U",
        "meta_norad_cat_id": 40874,
        "meta_element_set_no": 999,
        "meta_rev_at_epoch": 3777,
        "meta_bstar": 0,
        "meta_mean_motion_dot": -2.68e-06,
        "meta_mean_motion_ddot": 0,
        "tle_line1": "1 40874U 15039A   25348.26277005 -.00000268  00000+0  00000+0 0  9997",
        "tle_line2": "2 40874   0.0131 321.2524 0000589 194.4725 326.5566  1.00272082 37772"
      },
      "geometry": {
        "type": "Point",
        "coordinates": [
          8.010329133194709,
          0.022460904954781206
        ]
      }
    }
  ]
}